{
    "links": {
        "self": "http://www.neowsapp.com/rest/v1/neo/3092519?api_key=iIulBulltgU6a56xZRHN4H3l9WmuAYTsLGpBGhQ2"
    },
    "id": "3092519",
    "neo_reference_id": "3092519",
    "name": "(2001 WM15)",
    "designation": "2001 WM15",
    "nasa_jpl_url": "http://ssd.jpl.nasa.gov/sbdb.cgi?sstr=3092519",
    "absolute_magnitude_h": 25.0,
    "estimated_diameter": {
        "kilometers": {
            "estimated_diameter_min": 0.02658,
            "estimated_diameter_max": 0.0594346868
        },
        "meters": {
            "estimated_diameter_min": 26.58,
            "estimated_diameter_max": 59.4346868419
        },
        "miles": {
            "estimated_diameter_min": 0.0165160412,
            "estimated_diameter_max": 0.0369309908
        },
        "feet": {
            "estimated_diameter_min": 87.2047272,
            "estimated_diameter_max": 194.9956979785
        }
    },
    "is_potentially_hazardous_asteroid": false,
    "close_approach_data": [
        {
            "close_approach_date": "2001-11-29",
            "close_approach_date_full": "2001-Nov-29 01:16",
            "epoch_date_close_approach": 1006996560000,
            "relative_velocity": {
                "kilometers_per_second": "15.4341841699",
                "kilometers_per_hour": "55563.0630114809",
                "miles_per_hour": "34524.7265695504"
            },
            "miss_distance": {
                "astronomical": "0.0042381591",
                "lunar": "1.6486438899",
                "kilometers": "634019.574081117",
                "miles": "393961.4950967346"
            },
            "orbiting_body": "Moon"
        },
        {
            "close_approach_date": "2001-11-29",
            "close_approach_date_full": "2001-Nov-29 07:55",
            "epoch_date_close_approach": 1007020500000,
            "relative_velocity": {
                "kilometers_per_second": "15.2404936894",
                "kilometers_per_hour": "54865.7772817576",
                "miles_per_hour": "34091.4603337676"
            },
            "miss_distance": {
                "astronomical": "0.0048637227",
                "lunar": "1.8919881303",
                "kilometers": "727602.556190649",
                "miles": "452111.2637389962"
            },
            "orbiting_body": "Earth"
        }
    ],
    "orbital_data": {
        "orbit_id": "11",
        "orbit_determination_date": "2017-04-06 09:15:48",
        "first_observation_date": "2001-11-24",
        "last_observation_date": "2001-11-28",
        "data_arc_in_days": 4,
        "observations_used": 35,
        "orbit_uncertainty": "8",
        "minimum_orbit_intersection": ".00487326",
        "jupiter_tisserand_invariant": "3.750",
        "epoch_osculation": "2452239.5",
        "eccentricity": ".5936066194228522",
        "semi_major_axis": "1.86403635209295",
        "inclination": "5.408267338773854",
        "ascending_node_longitude": "244.2074117325705",
        "orbital_period": "929.565492351414",
        "perihelion_distance": ".7575320346457485",
        "perihelion_argument": "250.9072897989706",
        "aphelion_distance": "2.970540669540152",
        "perihelion_time": "2452286.330040962885",
        "mean_anomaly": "341.8637687335049",
        "mean_motion": ".3872777151928798",
        "equinox": "J2000",
        "orbit_class": {
            "orbit_class_type": "APO",
            "orbit_class_description": "Near-Earth asteroid orbits which cross the Earth’s orbit similar to that of 1862 Apollo",
            "orbit_class_range": "a (semi-major axis) > 1.0 AU; q (perihelion) < 1.017 AU"
        }
    },
    "is_sentry_object": false
}